TOKI                    
1 42820U 98067MU  18061.75084472  .00017416  00000-0  19121-3 0  9995
2 42820  51.6366 180.6849 0002475 114.4303 245.6950 15.63308970 37187
MAZAALAI (NUMSAT-1)     
1 42822U 98067MW  18062.53593623  .00015067  00000-0  16728-3 0  9997
2 42822  51.6368 176.9308 0002388 122.5443 237.5782 15.63149180 37287
BRAC ONNESHA            
1 42823U 98067MX  18061.76951473  .00016827  00000-0  18590-3 0  9997
2 42823  51.6372 180.8230 0004962 147.4169 212.7132 15.63169198 37164
NIGERIAEDUSAT-1         
1 42824U 98067MY  18062.54991918  .00014803  00000-0  16495-3 0  9997
2 42824  51.6380 177.0449 0004798 150.3283 209.7985 15.63065789 37276
SILU-1 (SILKROAD 1)     
1 42903U 17021F   18062.56379818  .00018135  00000-0  16878-3 0  9994
2 42903  42.7789 245.8134 0011580 278.7726 140.6403 15.66962328 33336
MIRATA                  
1 43015U 17073C   18062.40708693  .00000875  00000-0  75673-4 0  9997
2 43015  97.6983 357.9324 0257654 255.8280 101.4183 14.77853156 15516
ASTERIA                 
1 43020U 98067NH  18062.50822475  .00008638  00000-0  12484-3 0  9996
2 43020  51.6403 184.2819 0002545 128.8502 231.2717 15.56813082 16015
DELLINGR (RBLE)         
1 43021U 98067NJ  18061.89362273  .00005056  00000-0  78077-4 0  9995
2 43021  51.6397 187.6729 0002448 126.1011 234.0208 15.56033874 15910
TECHEDSAT 6             
1 43026U 98067NK  18062.19112625  .00083772  00000-0  77023-3 0  9998
2 43026  51.6360 182.1438 0002194 291.5958  68.4804 15.66956715 15917
OSIRIS-3U               
1 43027U 98067NL  18061.85646813  .00019419  00000-0  25141-3 0  9993
2 43027  51.6386 186.6749 0002684 107.4763 252.6523 15.58907085 15803
AEROCUBE 7B             
1 43042U 17071F   18061.78780167  .00003686  00000-0  10710-3 0  9994
2 43042  51.6385 199.5847 0005066 237.1108 122.9389 15.38082985 13226
AEROCUBE 7C             
1 43043U 17071G   18061.78732557  .00003700  00000-0  10738-3 0  9992
2 43043  51.6388 199.5828 0004971 236.9242 123.1265 15.38107268 13193
CHEFSAT                 
1 43044U 17071H   18062.16606523  .00005446  00000-0  15126-3 0  9994
2 43044  51.6394 197.6154 0005015 234.8798 125.1716 15.38496005 13255
ASGARDIA 1              
1 43049U 17071N   18061.97288517  .00003273  00000-0  95709-4 0  9998
2 43049  51.6390 198.5743 0002265 256.2405 103.8326 15.38264990 13219
ISARA                   
1 43050U 17071P   18061.77232541  .00004770  00000-0  13379-3 0  9999
2 43050  51.6392 199.4886 0002307 249.9156 110.1580 15.38487524 13190
FAUNA                   
1 43052U 17071R   18061.77421208  .00003431  00000-0  99569-4 0  9990
2 43052  51.6392 199.5012 0002204 250.0477 110.0270 15.38351096 13187
MICROMAS-2A             
1 43132U 18004X   18062.22857251  .00001156  00000-0  53226-4 0  9990
2 43132  97.5476 124.5695 0011705 107.5938 252.6578 15.22327908  7597
